{"fetched_at":"2026-07-17T06:37:54.961Z","source":"https://celestrak.org/NORAD/elements/gp.php?GROUP=qianfan&FORMAT=JSON","constellation":"qianfan","records":[{"OBJECT_NAME":"QIANFAN-65","OBJECT_ID":"2025-016L","EPOCH":"2026-07-16T18:32:59.629632","CLASSIFICATION_TYPE":"U","MEAN_MOTION":13.51030283,"ECCENTRICITY":0.0016031,"INCLINATION":88.9697,"RA_OF_ASC_NODE":80.6199,"ARG_OF_PERICENTER":78.8826,"MEAN_ANOMALY":281.4127,"EPHEMERIS_TYPE":0,"NORAD_CAT_ID":62795,"ELEMENT_SET_NO":999,"REV_AT_EPOCH":7641,"BSTAR":0.00013675,"MEAN_MOTION_DOT":0.00000101,"MEAN_MOTION_DDOT":0},{"OBJECT_NAME":"QIANFAN-66","OBJECT_ID":"2025-016M","EPOCH":"2026-07-16T21:01:16.591008","CLASSIFICATION_TYPE":"U","MEAN_MOTION":13.5102346,"ECCENTRICITY":0.0017124,"INCLINATION":88.9717,"RA_OF_ASC_NODE":80.6218,"ARG_OF_PERICENTER":74.7805,"MEAN_ANOMALY":285.5238,"EPHEMERIS_TYPE":0,"NORAD_CAT_ID":62796,"ELEMENT_SET_NO":999,"REV_AT_EPOCH":7647,"BSTAR":0.00011389,"MEAN_MOTION_DOT":8.6e-7,"MEAN_MOTION_DDOT":0},{"OBJECT_NAME":"QIANFAN-67","OBJECT_ID":"2025-016N","EPOCH":"2026-07-16T21:07:11.845344","CLASSIFICATION_TYPE":"U","MEAN_MOTION":13.51012146,"ECCENTRICITY":0.0017098,"INCLINATION":88.9707,"RA_OF_ASC_NODE":80.6257,"ARG_OF_PERICENTER":80.8483,"MEAN_ANOMALY":279.4602,"EPHEMERIS_TYPE":0,"NORAD_CAT_ID":62797,"ELEMENT_SET_NO":999,"REV_AT_EPOCH":7644,"BSTAR":0.00012984,"MEAN_MOTION_DOT":9.6e-7,"MEAN_MOTION_DDOT":0},{"OBJECT_NAME":"QIANFAN-68","OBJECT_ID":"2025-016P","EPOCH":"2026-07-16T20:55:05.217888","CLASSIFICATION_TYPE":"U","MEAN_MOTION":13.51024813,"ECCENTRICITY":0.001717,"INCLINATION":88.971,"RA_OF_ASC_NODE":80.6794,"ARG_OF_PERICENTER":78.9554,"MEAN_ANOMALY":281.3527,"EPHEMERIS_TYPE":0,"NORAD_CAT_ID":62798,"ELEMENT_SET_NO":999,"REV_AT_EPOCH":7642,"BSTAR":0.00011258,"MEAN_MOTION_DOT":8.5e-7,"MEAN_MOTION_DDOT":0},{"OBJECT_NAME":"QIANFAN-69","OBJECT_ID":"2025-016Q","EPOCH":"2026-07-16T19:32:07.999872","CLASSIFICATION_TYPE":"U","MEAN_MOTION":13.51018639,"ECCENTRICITY":0.0017908,"INCLINATION":88.9689,"RA_OF_ASC_NODE":80.5088,"ARG_OF_PERICENTER":80.3968,"MEAN_ANOMALY":279.9206,"EPHEMERIS_TYPE":0,"NORAD_CAT_ID":62799,"ELEMENT_SET_NO":999,"REV_AT_EPOCH":7645,"BSTAR":0.00012176,"MEAN_MOTION_DOT":9.1e-7,"MEAN_MOTION_DDOT":0},{"OBJECT_NAME":"QIANFAN-70","OBJECT_ID":"2025-016R","EPOCH":"2026-07-16T19:55:56.458848","CLASSIFICATION_TYPE":"U","MEAN_MOTION":13.51017035,"ECCENTRICITY":0.0017493,"INCLINATION":88.971,"RA_OF_ASC_NODE":80.6907,"ARG_OF_PERICENTER":71.8456,"MEAN_ANOMALY":288.4598,"EPHEMERIS_TYPE":0,"NORAD_CAT_ID":62800,"ELEMENT_SET_NO":999,"REV_AT_EPOCH":7641,"BSTAR":0.00011379,"MEAN_MOTION_DOT":8.6e-7,"MEAN_MOTION_DDOT":0},{"OBJECT_NAME":"QIANFAN-71","OBJECT_ID":"2025-016S","EPOCH":"2026-07-16T19:50:11.936256","CLASSIFICATION_TYPE":"U","MEAN_MOTION":13.51021029,"ECCENTRICITY":0.0017811,"INCLINATION":88.9704,"RA_OF_ASC_NODE":80.6576,"ARG_OF_PERICENTER":83.503,"MEAN_ANOMALY":276.8148,"EPHEMERIS_TYPE":0,"NORAD_CAT_ID":62801,"ELEMENT_SET_NO":999,"REV_AT_EPOCH":7641,"BSTAR":0.00013977,"MEAN_MOTION_DOT":0.00000103,"MEAN_MOTION_DDOT":0},{"OBJECT_NAME":"QIANFAN-72","OBJECT_ID":"2025-016T","EPOCH":"2026-07-16T20:13:39.268704","CLASSIFICATION_TYPE":"U","MEAN_MOTION":13.51014539,"ECCENTRICITY":0.0021035,"INCLINATION":88.9694,"RA_OF_ASC_NODE":80.6481,"ARG_OF_PERICENTER":90.0756,"MEAN_ANOMALY":270.2806,"EPHEMERIS_TYPE":0,"NORAD_CAT_ID":62802,"ELEMENT_SET_NO":999,"REV_AT_EPOCH":7640,"BSTAR":0.00013034,"MEAN_MOTION_DOT":9.7e-7,"MEAN_MOTION_DDOT":0},{"OBJECT_NAME":"QIANFAN-73","OBJECT_ID":"2025-046A","EPOCH":"2026-07-16T19:05:51.300960","CLASSIFICATION_TYPE":"U","MEAN_MOTION":13.51015221,"ECCENTRICITY":0.0014232,"INCLINATION":88.9724,"RA_OF_ASC_NODE":297.6073,"ARG_OF_PERICENTER":210.7285,"MEAN_ANOMALY":149.3034,"EPHEMERIS_TYPE":0,"NORAD_CAT_ID":63159,"ELEMENT_SET_NO":999,"REV_AT_EPOCH":7658,"BSTAR":0.00016453,"MEAN_MOTION_DOT":0.00000118,"MEAN_MOTION_DDOT":0},{"OBJECT_NAME":"QIANFAN-74","OBJECT_ID":"2025-046B","EPOCH":"2026-07-16T18:42:25.216128","CLASSIFICATION_TYPE":"U","MEAN_MOTION":13.51023023,"ECCENTRICITY":0.0002526,"INCLINATION":88.9724,"RA_OF_ASC_NODE":297.4987,"ARG_OF_PERICENTER":105.5052,"MEAN_ANOMALY":254.6378,"EPHEMERIS_TYPE":0,"NORAD_CAT_ID":63160,"ELEMENT_SET_NO":999,"REV_AT_EPOCH":7664,"BSTAR":0.0001554,"MEAN_MOTION_DOT":0.00000112,"MEAN_MOTION_DDOT":0},{"OBJECT_NAME":"QIANFAN-75","OBJECT_ID":"2025-046C","EPOCH":"2026-07-16T18:24:32.839200","CLASSIFICATION_TYPE":"U","MEAN_MOTION":13.51015524,"ECCENTRICITY":0.0015208,"INCLINATION":88.9725,"RA_OF_ASC_NODE":297.7366,"ARG_OF_PERICENTER":214.6694,"MEAN_ANOMALY":145.3467,"EPHEMERIS_TYPE":0,"NORAD_CAT_ID":63161,"ELEMENT_SET_NO":999,"REV_AT_EPOCH":7651,"BSTAR":0.00014864,"MEAN_MOTION_DOT":0.00000108,"MEAN_MOTION_DDOT":0},{"OBJECT_NAME":"QIANFAN-76","OBJECT_ID":"2025-046D","EPOCH":"2026-07-16T20:05:12.122304","CLASSIFICATION_TYPE":"U","MEAN_MOTION":13.51014432,"ECCENTRICITY":0.0012746,"INCLINATION":88.9725,"RA_OF_ASC_NODE":297.7093,"ARG_OF_PERICENTER":213.5124,"MEAN_ANOMALY":146.5222,"EPHEMERIS_TYPE":0,"NORAD_CAT_ID":63162,"ELEMENT_SET_NO":999,"REV_AT_EPOCH":7653,"BSTAR":0.00017903,"MEAN_MOTION_DOT":0.00000128,"MEAN_MOTION_DDOT":0},{"OBJECT_NAME":"QIANFAN-77","OBJECT_ID":"2025-046E","EPOCH":"2026-07-16T20:08:42.883008","CLASSIFICATION_TYPE":"U","MEAN_MOTION":13.96222293,"ECCENTRICITY":0.0017192,"INCLINATION":88.9727,"RA_OF_ASC_NODE":293.936,"ARG_OF_PERICENTER":123.0582,"MEAN_ANOMALY":237.2248,"EPHEMERIS_TYPE":0,"NORAD_CAT_ID":63163,"ELEMENT_SET_NO":999,"REV_AT_EPOCH":7860,"BSTAR":0.00015845,"MEAN_MOTION_DOT":0.00000232,"MEAN_MOTION_DDOT":0},{"OBJECT_NAME":"QIANFAN-78","OBJECT_ID":"2025-046F","EPOCH":"2026-07-16T19:17:52.765152","CLASSIFICATION_TYPE":"U","MEAN_MOTION":13.51009732,"ECCENTRICITY":0.0014027,"INCLINATION":88.9724,"RA_OF_ASC_NODE":297.5745,"ARG_OF_PERICENTER":216.6716,"MEAN_ANOMALY":143.3476,"EPHEMERIS_TYPE":0,"NORAD_CAT_ID":63164,"ELEMENT_SET_NO":999,"REV_AT_EPOCH":7660,"BSTAR":0.00015134,"MEAN_MOTION_DOT":0.0000011,"MEAN_MOTION_DDOT":0},{"OBJECT_NAME":"QIANFAN-79","OBJECT_ID":"2025-046G","EPOCH":"2026-07-16T19:59:16.399680","CLASSIFICATION_TYPE":"U","MEAN_MOTION":13.51019874,"ECCENTRICITY":0.0013885,"INCLINATION":88.9727,"RA_OF_ASC_NODE":297.6869,"ARG_OF_PERICENTER":214.9148,"MEAN_ANOMALY":145.1093,"EPHEMERIS_TYPE":0,"NORAD_CAT_ID":63165,"ELEMENT_SET_NO":999,"REV_AT_EPOCH":7655,"BSTAR":0.00016549,"MEAN_MOTION_DOT":0.00000119,"MEAN_MOTION_DDOT":0},{"OBJECT_NAME":"QIANFAN-80","OBJECT_ID":"2025-046H","EPOCH":"2026-07-16T18:36:27.571104","CLASSIFICATION_TYPE":"U","MEAN_MOTION":13.5101697,"ECCENTRICITY":0.0012564,"INCLINATION":88.9724,"RA_OF_ASC_NODE":297.3939,"ARG_OF_PERICENTER":219.1098,"MEAN_ANOMALY":140.9146,"EPHEMERIS_TYPE":0,"NORAD_CAT_ID":63166,"ELEMENT_SET_NO":999,"REV_AT_EPOCH":7670,"BSTAR":0.00016403,"MEAN_MOTION_DOT":0.00000118,"MEAN_MOTION_DDOT":0}]}
