QIANFAN-65              
1 62795U 25016L   26197.77291238  .00000101  00000+0  13675-3 0  9993
2 62795  88.9697  80.6199 0016031  78.8826 281.4127 13.51030283 76410
QIANFAN-66              
1 62796U 25016M   26197.87588647  .00000086  00000+0  11389-3 0  9990
2 62796  88.9717  80.6218 0017124  74.7805 285.5238 13.51023460 76475
QIANFAN-67              
1 62797U 25016N   26197.87999821  .00000096  00000+0  12984-3 0  9994
2 62797  88.9707  80.6257 0017098  80.8483 279.4602 13.51012146 76441
QIANFAN-68              
1 62798U 25016P   26197.87158817  .00000085  00000+0  11258-3 0  9998
2 62798  88.9710  80.6794 0017170  78.9554 281.3527 13.51024813 76420
QIANFAN-69              
1 62799U 25016Q   26197.81398148  .00000091  00000+0  12176-3 0  9993
2 62799  88.9689  80.5088 0017908  80.3968 279.9206 13.51018639 76455
QIANFAN-70              
1 62800U 25016R   26197.83051457  .00000086  00000+0  11379-3 0  9995
2 62800  88.9710  80.6907 0017493  71.8456 288.4598 13.51017035 76414
QIANFAN-71              
1 62801U 25016S   26197.82652704  .00000103  00000+0  13977-3 0  9993
2 62801  88.9704  80.6576 0017811  83.5030 276.8148 13.51021029 76412
QIANFAN-72              
1 62802U 25016T   26197.84281561  .00000097  00000+0  13034-3 0  9991
2 62802  88.9694  80.6481 0021035  90.0756 270.2806 13.51014539 76403
QIANFAN-73              
1 63159U 25046A   26197.79573265  .00000118  00000+0  16453-3 0  9991
2 63159  88.9724 297.6073 0014232 210.7285 149.3034 13.51015221 76586
QIANFAN-74              
1 63160U 25046B   26197.77945852  .00000112  00000+0  15540-3 0  9996
2 63160  88.9724 297.4987 0002526 105.5052 254.6378 13.51023023 76643
QIANFAN-75              
1 63161U 25046C   26197.76704675  .00000108  00000+0  14864-3 0  9995
2 63161  88.9725 297.7366 0015208 214.6694 145.3467 13.51015524 76512
QIANFAN-76              
1 63162U 25046D   26197.83694586  .00000128  00000+0  17903-3 0  9992
2 63162  88.9725 297.7093 0012746 213.5124 146.5222 13.51014432 76531
QIANFAN-77              
1 63163U 25046E   26197.83938522  .00000232  00000+0  15845-3 0  9993
2 63163  88.9727 293.9360 0017192 123.0582 237.2248 13.96222293 78603
QIANFAN-78              
1 63164U 25046F   26197.80408293  .00000110  00000+0  15134-3 0  9994
2 63164  88.9724 297.5745 0014027 216.6716 143.3476 13.51009732 76600
QIANFAN-79              
1 63165U 25046G   26197.83282870  .00000119  00000+0  16549-3 0  9999
2 63165  88.9727 297.6869 0013885 214.9148 145.1093 13.51019874 76550
QIANFAN-80              
1 63166U 25046H   26197.77531911  .00000118  00000+0  16403-3 0  9994
2 63166  88.9724 297.3939 0012564 219.1098 140.9146 13.51016970 76700
